KUIPER-00061            
1 64521U 25134X   25316.60672000  .00009526  00000+0  12749-2 0  9997
2 64521  51.9025  25.8238 0005104 248.6853 111.3565 14.79994252 22790
KUIPER-00062            
1 64522U 25134Y   25316.19659070  .00007332  00000+0  88047-3 0  9992
2 64522  51.8986  33.6919 0006909 269.4087  90.6086 14.84839726 22666
KUIPER-00063            
1 64523U 25134Z   25316.25188465  .00011690  00000+0  15567-2 0  9993
2 64523  51.9024  37.3222 0003420 201.9821 158.0995 14.80016273 22614
KUIPER-00064            
1 64524U 25134AA  25316.58400042  .00013568  00000+0  18176-2 0  9993
2 64524  51.9031  33.1831 0006111 328.6713  31.3885 14.79633245 22703
KUIPER-00065            
1 64525U 25134AB  25316.61735613 -.00013436  00000+0 -17332-2 0  9992
2 64525  51.9030  37.8979 0010663 259.9471 100.0289 14.79973108 22629
KUIPER-00066            
1 64526U 25134AC  25316.59391314  .00039490  00000+0  18446-2 0  9999
2 64526  51.8907  16.6037 0002350 310.7670  49.3105 15.19426958 22930
KUIPER-00069            
1 64816U 25151A   25316.83336806 -.00245649  00000+0 -27552-1 0  9996
2 64816  51.9201  77.4228 0007037 251.8779 160.2777 14.87803099  5746
KUIPER-00070            
1 64817U 25151B   25316.15139399  .00010015  00000+0  13385-2 0  9995
2 64817  51.8983 105.3178 0010030 217.3896 142.6369 14.79977807 19018
